ZHONGXING-2C            
1 41021U 15063A   26156.70997155 -.00000311  00000+0  00000+0 0  9990
2 41021   0.2438  90.5048 0007499  95.6498  67.0117  1.00269870 38863
GSAT-15                 
1 41028U 15065A   26156.71989226 -.00000245  00000+0  00000+0 0  9996
2 41028   0.0463 114.8833 0004192 321.5797 170.3592  1.00271216 38680
BADR-7 (ARABSAT-6B)     
1 41029U 15065B   26156.63966262  .00000157  00000+0  00000+0 0  9994
2 41029   0.0422 241.4992 0003121 315.8872 312.9692  1.00269558 38658
LAOSAT 1                
1 41034U 15067A   26156.58861234 -.00000331  00000+0  00000+0 0  9994
2 41034   0.0374 214.2774 0002225 186.2253 193.9317  1.00268327 38747
TELSTAR 12V             
1 41036U 15068A   26156.70282527 -.00000106  00000+0  00000+0 0  9993
2 41036   0.0162   9.0757 0002512  62.6238  60.4627  1.00271759 38514
ELEKTRO-L 2             
1 41105U 15074A   26156.06124635 -.00000106  00000+0  00000+0 0  9991
2 41105   6.6638  70.6705 0001332 281.5102 268.8844  1.00272317 38380
COSMOS 2513             
1 41121U 15075A   26156.36523481 -.00000125  00000+0  00000+0 0  9996
2 41121   0.0789 101.0025 0003886 328.4191  36.1180  1.00270033 38430
EXPRESS-AMU1            
1 41191U 15082A   26156.57037747  .00000168  00000+0  00000+0 0  9995
2 41191   0.0170 314.8761 0003099 124.9185  55.6672  1.00273609 38153
GAOFEN-4                
1 41194U 15083A   26156.65540723 -.00000322  00000+0  00000+0 0  9994
2 41194   0.3275  83.7736 0004332 108.9975  42.9536  1.00269735 38411
BELINTERSAT-1           
1 41238U 16001A   26156.64468931  .00000119  00000+0  00000+0 0  9996
2 41238   0.0428 139.2755 0002161 253.3803 145.0055  1.00272326 38127
IRNSS-1E                
1 41241U 16003A   26156.65653389 -.00000296  00000+0  00000+0 0  9993
2 41241  33.2101  59.9173 0017866 179.8467   2.4219  1.00270491 37965
EUTELSAT 9B             
1 41310U 16005A   26156.70759197  .00000074  00000+0  00000+0 0  9995
2 41310   0.0525  68.6936 0002061 336.1751 112.9830  1.00271983 38002
SES-9                   
1 41380U 16013A   26156.65592722 -.00000332  00000+0  00000+0 0  9992
2 41380   0.0098 339.9884 0002440 103.0252 155.5108  1.00270772 37328
EUTELSAT 65 WEST A      
1 41382U 16014A   26156.47895889 -.00000264  00000+0  00000+0 0  9999
2 41382   0.0485 358.5870 0002504  66.2887 296.2563  1.00274245 37403
IRNSS-1F                
1 41384U 16015A   26156.56959744  .00000170  00000+0  00000+0 0  9998
2 41384   5.3201  97.0437 0016674 186.9129 207.6144  1.00276988 37558
BEIDOU-2 IGSO-6         
1 41434U 16021A   26156.65254722 -.00000145  00000+0  00000+0 0  9998
2 41434  60.2092  38.1555 0057227 231.4567 312.9233  1.00261992 37367
IRNSS-1G                
1 41469U 16027A   26156.73144140 -.00000321  00000+0  00000+0 0  9999
2 41469   5.1700  97.7378 0007440 351.9902 197.3379  1.00271988 37065
JCSAT-2B                
1 41471U 16028A   26156.61221631 -.00000153  00000+0  00000+0 0  9994
2 41471   0.0181 336.8844 0001195 119.0469 172.5147  1.00270870 37014
THAICOM 8               
1 41552U 16031A   26156.60384821 -.00000109  00000+0  00000+0 0  9999
2 41552   0.0606  40.2739 0003925  15.8936 133.8004  1.00271176 36606
INTELSAT 31 (IS-31)     
1 41581U 16035A   26156.54439301 -.00000138  00000+0  00000+0 0  9994
2 41581   0.0175 260.7494 0000767 343.6712 110.4954  1.00268422 36561
BEIDOU-2 G7             
1 41586U 16037A   26156.66611440 -.00000341  00000+0  00000+0 0  9996
2 41586   1.6914  69.2191 0007353   1.0265 174.2148  1.00270961  6770
ABS-2A (MONGOLSAT-1)    
1 41588U 16038A   26156.72060889  .00000000  00000+0  00000+0 0  9992
2 41588   0.0185 334.6345 0001515  53.2766 200.4051  1.00268588 36594
EUTELSAT 117 WEST B     
1 41589U 16038B   26156.61132243  .00000001  00000+0  00000+0 0  9996
2 41589   0.0104 144.4859 0000223 204.6600   7.9647  1.00270561 36547
BRISAT                  
1 41591U 16039A   26156.63586367 -.00000184  00000+0  00000+0 0  9995
2 41591   0.0168 303.3967 0002196 130.5396 199.5450  1.00270992 36498
ECHOSTAR 18             
1 41592U 16039B   26156.47973890 -.00000270  00000+0  00000+0 0  9995
2 41592   0.0178 350.1339 0001812  94.5928 280.5382  1.00273514 36507
MUOS-5                  
1 41622U 16041A   26156.68482149 -.00000109  00000+0  00000+0 0  9998
2 41622   2.2289 301.4240 0196641 260.8740 193.1240  1.00270654 36978
TIANTONG-1 1            
1 41725U 16048A   26156.72577466 -.00000306  00000+0  00000+0 0  9990
2 41725   3.8269  43.3161 0006200  40.6637 172.8820  1.00272758 36156
JCSAT-16                
1 41729U 16050A   26156.73430144 -.00000238  00000+0  00000+0 0  9993
2 41729   0.0171 337.1086 0001212 114.5880 210.7598  1.00271982 35959
USA 270                 
1 41744U 16052A   26156.41948030  .00000091  00000+0  00000+0 0  9991
2 41744   4.1687  77.3372 0008506 337.2537 174.5297  1.00283253 28016
USA 271                 
1 41745U 16052B   26156.30233265 -.00000347  00000+0  00000+0 0  9992
2 41745   4.1397  77.4076 0010790 157.5545 250.4094  1.00263603 27809
INTELSAT 36 (IS-36)     
1 41747U 16053A   26156.43423860 -.00000012  00000+0  00000+0 0  9990
2 41747   0.0109   5.6814 0001671 335.1773 137.8309  1.00271379 35844
INSAT-3DR               
1 41752U 16054A   26156.72043557 -.00000064  00000+0  00000+0 0  9997
2 41752   0.0768  87.9285 0010305 187.0580 312.5205  1.00270854 35709
