OBJECT_NAME,OBJECT_ID,EPOCH,MEAN_MOTION,ECCENTRICITY,INCLINATION,RA_OF_ASC_NODE,ARG_OF_PERICENTER,MEAN_ANOMALY,EPHEMERIS_TYPE,CLASSIFICATION_TYPE,NORAD_CAT_ID,ELEMENT_SET_NO,REV_AT_EPOCH,BSTAR,MEAN_MOTION_DOT,MEAN_MOTION_DDOT
ZHONGXING-2C,2015-063A,2026-06-05T17:02:21.541920,1.00269870,.0007499,0.2438,90.5048,95.6498,67.0117,0,U,41021,999,3886,0,-.311E-5,0
GSAT-15,2015-065A,2026-06-05T17:16:38.691264,1.00271216,.0004192,0.0463,114.8833,321.5797,170.3592,0,U,41028,999,3868,0,-.245E-5,0
BADR-7 (ARABSAT-6B),2015-065B,2026-06-05T15:21:06.850368,1.00269558,.0003121,0.0422,241.4992,315.8872,312.9692,0,U,41029,999,3865,0,.157E-5,0
LAOSAT 1,2015-067A,2026-06-05T14:07:36.106176,1.00268327,.0002225,0.0374,214.2774,186.2253,193.9317,0,U,41034,999,3874,0,-.331E-5,0
TELSTAR 12V,2015-068A,2026-06-05T16:52:04.103328,1.00271759,.0002512,0.0162,9.0757,62.6238,60.4627,0,U,41036,999,3851,0,-.106E-5,0
ELEKTRO-L 2,2015-074A,2026-06-05T01:28:11.684640,1.00272317,.00013322,6.6638,70.6705,281.5102,268.8844,0,U,41105,999,3838,0,-.106E-5,0
COSMOS 2513,2015-075A,2026-06-05T08:45:56.287584,1.00270033,.0003886,0.0789,101.0025,328.4191,36.1180,0,U,41121,999,3843,0,-.125E-5,0
EXPRESS-AMU1,2015-082A,2026-06-05T13:41:20.613408,1.00273609,.0003099,0.0170,314.8761,124.9185,55.6672,0,U,41191,999,3815,0,.168E-5,0
GAOFEN-4,2015-083A,2026-06-05T15:43:47.184672,1.00269735,.0004332,0.3275,83.7736,108.9975,42.9536,0,U,41194,999,3841,0,-.322E-5,0
BELINTERSAT-1,2016-001A,2026-06-05T15:28:21.156384,1.00272326,.0002161,0.0428,139.2755,253.3803,145.0055,0,U,41238,999,3812,0,.119E-5,0
IRNSS-1E,2016-003A,2026-06-05T15:45:24.528096,1.00270491,.0017866,33.2101,59.9173,179.8467,2.4219,0,U,41241,999,3796,0,-.296E-5,0
EUTELSAT 9B,2016-005A,2026-06-05T16:58:55.946208,1.00271983,.0002061,0.0525,68.6936,336.1751,112.9830,0,U,41310,999,3800,0,.74E-6,0
SES-9,2016-013A,2026-06-05T15:44:32.111808,1.00270772,.000244,0.0098,339.9884,103.0252,155.5108,0,U,41380,999,3732,0,-.332E-5,0
EUTELSAT 65 WEST A,2016-014A,2026-06-05T11:29:42.048096,1.00274245,.0002504,0.0485,358.5870,66.2887,296.2563,0,U,41382,999,3740,0,-.264E-5,0
IRNSS-1F,2016-015A,2026-06-05T13:40:13.218816,1.00276988,.0016674,5.3201,97.0437,186.9129,207.6144,0,U,41384,999,3755,0,.17E-5,0
BEIDOU-2 IGSO-6,2016-021A,2026-06-05T15:39:40.079808,1.00261992,.0057227,60.2092,38.1555,231.4567,312.9233,0,U,41434,999,3736,0,-.145E-5,0
IRNSS-1G,2016-027A,2026-06-05T17:33:16.536960,1.00271988,.000744,5.1700,97.7378,351.9902,197.3379,0,U,41469,999,3706,0,-.321E-5,0
JCSAT-2B,2016-028A,2026-06-05T14:41:35.489184,1.00270870,.0001195,0.0181,336.8844,119.0469,172.5147,0,U,41471,999,3701,0,-.153E-5,0
THAICOM 8,2016-031A,2026-06-05T14:29:32.485344,1.00271176,.0003925,0.0606,40.2739,15.8936,133.8004,0,U,41552,999,3660,0,-.109E-5,0
INTELSAT 31 (IS-31),2016-035A,2026-06-05T13:03:55.556064,1.00268422,.0000767,0.0175,260.7494,343.6712,110.4954,0,U,41581,999,3656,0,-.138E-5,0
BEIDOU-2 G7,2016-037A,2026-06-05T15:59:12.284160,1.00270961,.0007353,1.6914,69.2191,1.0265,174.2148,0,U,41586,999,677,0,-.341E-5,0
ABS-2A (MONGOLSAT-1),2016-038A,2026-06-05T17:17:40.608096,1.00268588,.0001515,0.0185,334.6345,53.2766,200.4051,0,U,41588,999,3659,0,0,0
EUTELSAT 117 WEST B,2016-038B,2026-06-05T14:40:18.257952,1.00270561,.0000223,0.0104,144.4859,204.6600,7.9647,0,U,41589,999,3654,0,.1E-7,0
BRISAT,2016-039A,2026-06-05T15:15:38.621088,1.00270992,.0002196,0.0168,303.3967,130.5396,199.5450,0,U,41591,999,3649,0,-.184E-5,0
ECHOSTAR 18,2016-039B,2026-06-05T11:30:49.440960,1.00273514,.0001812,0.0178,350.1339,94.5928,280.5382,0,U,41592,999,3650,0,-.27E-5,0
MUOS-5,2016-041A,2026-06-05T16:26:08.576736,1.00270654,.0196641,2.2289,301.4240,260.8740,193.1240,0,U,41622,999,3697,0,-.109E-5,0
TIANTONG-1 1,2016-048A,2026-06-05T17:25:06.930624,1.00272758,.00062,3.8269,43.3161,40.6637,172.8820,0,U,41725,999,3615,0,-.306E-5,0
JCSAT-16,2016-050A,2026-06-05T17:37:23.644416,1.00271982,.0001212,0.0171,337.1086,114.5880,210.7598,0,U,41729,999,3595,0,-.238E-5,0
USA 270,2016-052A,2026-06-05T10:04:03.097920,1.00283253,.0008506,4.1687,77.3372,337.2537,174.5297,0,U,41744,999,2801,0,.91E-6,0
USA 271,2016-052B,2026-06-05T07:15:21.540960,1.00263603,.001079,4.1397,77.4076,157.5545,250.4094,0,U,41745,999,2780,0,-.347E-5,0
INTELSAT 36 (IS-36),2016-053A,2026-06-05T10:25:18.215040,1.00271379,.0001671,0.0109,5.6814,335.1773,137.8309,0,U,41747,999,3584,0,-.12E-6,0
INSAT-3DR,2016-054A,2026-06-05T17:17:25.633248,1.00270854,.0010305,0.0768,87.9285,187.0580,312.5205,0,U,41752,999,3570,0,-.64E-6,0
